NORAD_CAT_ID,OBJECT_NAME,OBJECT_TYPE,EPOCH,MEAN_MOTION,ECCENTRICITY,INCLINATION,RA_OF_ASC_NODE,ARG_OF_PERICENTER,MEAN_ANOMALY,BSTAR,MEAN_MOTION_DOT,MEAN_MOTION_DDOT,TLE_LINE0,TLE_LINE1,TLE_LINE2,SEMIMAJOR_AXIS,PERIOD,APOGEE,PERIGEE,DECAYED
53429.0,STARLINK-4543,PAYLOAD,2023-11-22 03:59:41,15.08843582,0.0001564,53.2168,268.5131,89.9172,270.1999,0.00011556,1.552e-05,0.0,0 STARLINK-4543,1 53429U 22097AT  23326.16645293  .00001552  00000-0  11556-3 0  9999,2 53429  53.2168 268.5131 0001564  89.9172 270.1999 15.08843582 71715,6917.869,95.437,540.816,538.652,0.0
53429.0,STARLINK-4543,PAYLOAD,2023-11-23 02:15:05,15.08843206,0.0001909,53.2181,264.3478,78.8007,281.32,9.5346e-06,-1.36e-06,0.0,0 STARLINK-4543,1 53429U 22097AT  23327.09381627 -.00000136  00000-0  95346-5 0  9999,2 53429  53.2181 264.3478 0001909  78.8007 281.3200 15.08843206 71852,6917.871,95.437,541.056,538.415,0.0
53429.0,STARLINK-4543,PAYLOAD,2023-11-23 05:25:51,15.08851867,0.0001802,53.2176,263.7494,79.6164,280.5031,0.0001944,2.808e-05,0.0,0 STARLINK-4543,1 53429U 22097AT  23327.22629098  .00002808  00000-0  19440-3 0  9997,2 53429  53.2176 263.7494 0001802  79.6164 280.5031 15.08851867 71879,6917.844,95.437,540.956,538.463,0.0
53429.0,STARLINK-4543,PAYLOAD,2023-11-24 02:05:53,15.08835772,0.0001604,53.2165,259.8876,86.8734,273.2442,9.3847e-05,1.206e-05,0.0,0 STARLINK-4543,1 53429U 22097AT  23328.08742079  .00001206  00000-0  93847-4 0  9992,2 53429  53.2165 259.8876 0001604  86.8734 273.2442 15.08835772 72008,6917.893,95.438,540.868,538.649,0.0
53429.0,STARLINK-4543,PAYLOAD,2023-11-24 22:45:53,15.08844154,0.0001621,53.2168,256.0249,99.3969,260.7207,0.00012484,1.7e-05,0.0,0 STARLINK-4543,1 53429U 22097AT  23328.94854085  .00001700  00000-0  12484-3 0  9994,2 53429  53.2168 256.0249 0001621  99.3969 260.7207 15.08844154 72613,6917.868,95.437,540.854,538.611,0.0
53429.0,STARLINK-4543,PAYLOAD,2023-11-25 05:07:26,15.08850159,0.0001604,53.2168,254.8323,109.7102,250.4063,0.00029712,4.445e-05,0.0,0 STARLINK-4543,1 53429U 22097AT  23329.21349859  .00004445  00000-0  29712-3 0  9994,2 53429  53.2168 254.8323 0001604 109.7102 250.4063 15.08850159 72650,6917.849,95.437,540.824,538.605,0.0
53429.0,STARLINK-4543,PAYLOAD,2023-11-25 22:36:40,15.08854771,0.0001737,53.217,251.563,111.5783,248.5395,0.00038835,5.9e-05,0.0,0 STARLINK-4543,1 53429U 22097AT  23329.94213767  .00005900  00000-0  38835-3 0  9995,2 53429  53.2170 251.5630 0001737 111.5783 248.5395 15.08854771 72763,6917.835,95.437,540.902,538.499,0.0
53429.0,STARLINK-4543,PAYLOAD,2023-11-26 01:47:26,15.08860677,0.0001565,53.2174,250.966,96.2947,263.8224,0.00054041,8.328e-05,0.0,0 STARLINK-4543,1 53429U 22097AT  23330.07461662  .00008328  00000-0  54041-3 0  9994,2 53429  53.2174 250.9660 0001565  96.2947 263.8224 15.08860677 72306,6917.817,95.436,540.765,538.6,0.0
53429.0,STARLINK-4543,PAYLOAD,2023-11-26 22:27:28,15.08832649,0.0001562,53.2174,247.0997,111.1172,248.9987,-8.9109e-05,-1.706e-05,0.0,0 STARLINK-4543,1 53429U 22097AT  23330.93574730 -.00001706  00000-0 -89109-4 0  9999,2 53429  53.2174 247.0997 0001562 111.1172 248.9987 15.08832649 72915,6917.903,95.438,540.848,538.687,0.0
53429.0,STARLINK-4543,PAYLOAD,2023-11-27 00:02:51,15.08831694,0.0001537,53.217,246.8034,108.6866,251.4293,-0.00011043,-2.045e-05,0.0,0 STARLINK-4543,1 53429U 22097AT  23331.00198686 -.00002045  00000-0 -11043-3 0  9998,2 53429  53.2170 246.8034 0001537 108.6866 251.4293 15.08831694 72449,6917.906,95.438,540.834,538.707,0.0
53429.0,STARLINK-4543,PAYLOAD,2023-11-27 04:49:01,15.08833924,0.0001652,53.2171,245.9093,115.8878,244.2284,-3.9613e-05,-9.18e-06,0.0,0 STARLINK-4543,1 53429U 22097AT  23331.20070772 -.00000918  00000-0 -39613-4 0  9996,2 53429  53.2171 245.9093 0001652 115.8878 244.2284 15.08833924 72950,6917.899,95.438,540.907,538.621,0.0
53429.0,STARLINK-4543,PAYLOAD,2023-11-27 22:18:15,15.08839995,0.0001464,53.2174,242.6435,100.784,259.3317,6.2876e-05,7.13e-06,0.0,0 STARLINK-4543,1 53429U 22097AT  23331.92934718  .00000713  00000-0  62876-4 0  9992,2 53429  53.2174 242.6435 0001464 100.7840 259.3317 15.08839995 73061,6917.88,95.438,540.758,538.733,0.0
53429.0,STARLINK-4543,PAYLOAD,2023-11-28 01:29:01,15.0885212,0.0001617,53.2175,242.0456,115.6005,244.5155,0.00026026,3.858e-05,0.0,0 STARLINK-4543,1 53429U 22097AT  23332.06182225  .00003858  00000-0  26026-3 0  9995,2 53429  53.2175 242.0456 0001617 115.6005 244.5155 15.08852120 72607,6917.843,95.437,540.827,538.59,0.0
53429.0,STARLINK-4543,PAYLOAD,2023-11-28 04:39:47,15.08858857,0.0001407,53.2173,241.4514,106.5913,253.5234,0.00042814,6.536e-05,0.0,0 STARLINK-4543,1 53429U 22097AT  23332.19429876  .00006536  00000-0  42814-3 0  9994,2 53429  53.2173 241.4514 0001407 106.5913 253.5234 15.08858857 73104,6917.823,95.436,540.661,538.714,0.0
53429.0,STARLINK-4543,PAYLOAD,2023-11-28 22:09:02,15.08844264,0.0001794,53.217,238.1777,108.4333,251.6854,0.00018405,2.643e-05,0.0,0 STARLINK-4543,1 53429U 22097AT  23332.92294512  .00002643  00000-0  18405-3 0  9996,2 53429  53.2170 238.1777 0001794 108.4333 251.6854 15.08844264 73217,6917.867,95.437,540.973,538.491,0.0
53429.0,STARLINK-4543,PAYLOAD,2023-11-29 01:19:48,15.08848021,0.0001492,53.2171,237.5812,99.0297,261.0864,0.00025631,3.794e-05,0.0,0 STARLINK-4543,1 53429U 22097AT  23333.05542391  .00003794  00000-0  25631-3 0  9999,2 53429  53.2171 237.5812 0001492  99.0297 261.0864 15.08848021 72759,6917.856,95.437,540.753,538.689,0.0
53429.0,STARLINK-4543,PAYLOAD,2023-11-30 01:10:35,15.08846636,0.0001596,53.2171,233.1256,78.8214,281.2958,0.00010962,1.457e-05,0.0,0 STARLINK-4543,1 53429U 22097AT  23334.04902301  .00001457  00000-0  10962-3 0  9995,2 53429  53.2171 233.1256 0001596  78.8214 281.2958 15.08846636 72907,6917.86,95.437,540.829,538.621,0.0
53429.0,STARLINK-4543,PAYLOAD,2023-12-01 02:36:46,15.08838159,0.0001671,53.2169,228.3629,76.1417,283.9761,0.00010088,1.318e-05,0.0,0 STARLINK-4543,1 53429U 22097AT  23335.10887018  .00001318  00000-0  10088-3 0  9995,2 53429  53.2169 228.3629 0001671  76.1417 283.9761 15.08838159 73064,6917.886,95.438,540.907,538.595,0.0
53429.0,STARLINK-4543,PAYLOAD,2023-12-01 21:41:23,15.08863652,0.0002096,53.217,224.7997,113.652,246.4692,0.000692,0.00010749,0.0,0 STARLINK-4543,1 53429U 22097AT  23335.90374222  .00010749  00000-0  69200-3 0  9999,2 53429  53.2170 224.7997 0002096 113.6520 246.4692 15.08863652 73667,6917.808,95.436,541.123,538.223,0.0
53429.0,STARLINK-4543,PAYLOAD,2023-12-01 23:16:46,15.0886941,0.0001482,53.2163,224.5058,86.151,273.9652,0.00089331,0.00013969,0.0,0 STARLINK-4543,1 53429U 22097AT  23335.96998219  .00013969  00000-0  89331-3 0  9997,2 53429  53.2163 224.5058 0001482  86.1510 273.9652 15.08869410 73193,6917.79,95.436,540.681,538.63,0.0
53429.0,STARLINK-4543,PAYLOAD,2023-12-02 19:56:48,15.08836764,0.0001597,53.2164,220.6348,99.4285,260.6888,9.0685e-06,-1.44e-06,0.0,0 STARLINK-4543,1 53429U 22097AT  23336.83111230 -.00000144  00000-0  90685-5 0  9992,2 53429  53.2164 220.6348 0001597  99.4285 260.6888 15.08836764 73321,6917.89,95.438,540.86,538.65,0.0
53429.0,STARLINK-4543,PAYLOAD,2023-12-02 21:32:11,15.08833702,0.0001595,53.2156,220.3369,116.2273,243.8883,-7.3229e-05,-1.453e-05,0.0,0 STARLINK-4543,1 53429U 22097AT  23336.89735201 -.00001453  00000-0 -73229-4 0  9997,2 53429  53.2156 220.3369 0001595 116.2273 243.8883 15.08833702 73816,6917.9,95.438,540.868,538.661,0.0
53429.0,STARLINK-4543,PAYLOAD,2023-12-02 23:07:34,15.08831423,0.0001425,53.2161,220.0398,109.2886,250.8261,-0.00010792,-2.005e-05,0.0,0 STARLINK-4543,1 53429U 22097AT  23336.96359343 -.00002005  00000-0 -10792-3 0  9993,2 53429  53.2161 220.0398 0001425 109.2886 250.8261 15.08831423 73822,6917.907,95.438,540.757,538.786,0.0
53429.0,STARLINK-4543,PAYLOAD,2023-12-03 21:22:58,15.08834472,0.000169,53.2161,215.8802,64.9773,295.1394,0.00012759,1.743e-05,0.0,0 STARLINK-4543,1 53429U 22097AT  23337.89095601  .00001743  00000-0  12759-3 0  9991,2 53429  53.2161 215.8802 0001690  64.9773 295.1394 15.08834472 73488,6917.897,95.438,540.931,538.593,0.0
53429.0,STARLINK-4543,PAYLOAD,2023-12-04 16:27:36,15.08848399,0.0001513,53.2148,212.311,72.4641,287.6516,0.00039688,6.035e-05,0.0,0 STARLINK-4543,1 53429U 22097AT  23338.68583583  .00006035  00000-0  39688-3 0  9999,2 53429  53.2148 212.3110 0001513  72.4641 287.6516 15.08848399 74081,6917.855,95.437,540.766,538.673,0.0
53429.0,STARLINK-4543,PAYLOAD,2023-12-06 00:15:18,15.08846771,0.0001555,53.2153,206.3645,72.311,287.8052,8.3855e-05,1.047e-05,0.0,0 STARLINK-4543,1 53429U 22097AT  23340.01063081  .00001047  00000-0  83855-4 0  9999,2 53429  53.2153 206.3645 0001555  72.3110 287.8052 15.08846771 73807,6917.86,95.437,540.8,538.649,0.0
53429.0,STARLINK-4543,PAYLOAD,2023-12-06 22:30:42,15.08837502,0.0001544,53.2149,202.2007,74.8481,285.2682,-2.1696e-05,-6.33e-06,0.0,0 STARLINK-4543,1 53429U 22097AT  23340.93799282 -.00000633  00000-0 -21696-4 0  9996,2 53429  53.2149 202.2007 0001544  74.8481 285.2682 15.08837502 73943,6917.888,95.438,540.821,538.685,0.0
53429.0,STARLINK-4543,PAYLOAD,2023-12-07 14:24:34,15.08837194,0.0001569,53.2148,199.2274,74.3532,285.7633,3.0304e-05,1.94e-06,0.0,0 STARLINK-4543,1 53429U 22097AT  23341.60039522  .00000194  00000-0  30304-4 0  9991,2 53429  53.2148 199.2274 0001569  74.3532 285.7633 15.08837194 74525,6917.889,95.438,540.839,538.669,0.0
53429.0,STARLINK-4543,PAYLOAD,2023-12-07 23:56:53,15.08837168,0.0001581,53.2147,197.4431,74.4537,285.663,7.3616e-05,8.84e-06,0.0,0 STARLINK-4543,1 53429U 22097AT  23341.99783666  .00000884  00000-0  73616-4 0  9997,2 53429  53.2147 197.4431 0001581  74.4537 285.6630 15.08837168 74100,6917.889,95.438,540.848,538.66,0.0
53429.0,STARLINK-4543,PAYLOAD,2023-12-09 23:38:27,15.08836224,0.0001588,53.2156,188.522,77.4906,282.6264,2.1426e-05,5.3e-07,0.0,0 STARLINK-4543,1 53429U 22097AT  23343.98503928  .00000053  00000-0  21426-4 0  9999,2 53429  53.2156 188.5220 0001588  77.4906 282.6264 15.08836224 74402,6917.892,95.438,540.855,538.658,0.0
